[{"OBJECT_NAME":"STARLINK-36862","OBJECT_ID":"2026-039T","EPOCH":"2026-03-06T06:00:02.000160","MEAN_MOTION":15.96984525,"ECCENTRICITY":0.00015347,"INCLINATION":42.9979,"RA_OF_ASC_NODE":76.1405,"ARG_OF_PERICENTER":269.9631,"MEAN_ANOMALY":273.0237,"EPHEMERIS_TYPE":0,"CLASSIFICATION_TYPE":"U","NORAD_CAT_ID":68003,"ELEMENT_SET_NO":999,"REV_AT_EPOCH":232,"BSTAR":-0.0032629624,"MEAN_MOTION_DOT":-0.01461991,"MEAN_MOTION_DDOT":0.00063625142},{"OBJECT_NAME":"STARLINK-36888","OBJECT_ID":"2026-039U","EPOCH":"2026-03-06T06:00:02.000160","MEAN_MOTION":15.96579125,"ECCENTRICITY":0.00014819,"INCLINATION":42.9979,"RA_OF_ASC_NODE":76.1558,"ARG_OF_PERICENTER":268.7456,"MEAN_ANOMALY":268.4022,"EPHEMERIS_TYPE":0,"CLASSIFICATION_TYPE":"U","NORAD_CAT_ID":68004,"ELEMENT_SET_NO":999,"REV_AT_EPOCH":232,"BSTAR":-0.0033454073,"MEAN_MOTION_DOT":-0.01465759,"MEAN_MOTION_DDOT":0.0006366022},{"OBJECT_NAME":"STARLINK-36910","OBJECT_ID":"2026-039V","EPOCH":"2026-03-06T06:00:02.000160","MEAN_MOTION":15.96856726,"ECCENTRICITY":0.00015348,"INCLINATION":42.9977,"RA_OF_ASC_NODE":76.145,"ARG_OF_PERICENTER":271.4772,"MEAN_ANOMALY":269.7552,"EPHEMERIS_TYPE":0,"CLASSIFICATION_TYPE":"U","NORAD_CAT_ID":68005,"ELEMENT_SET_NO":999,"REV_AT_EPOCH":232,"BSTAR":-0.0032930226,"MEAN_MOTION_DOT":-0.0146505,"MEAN_MOTION_DDOT":0.00063785631},{"OBJECT_NAME":"STARLINK-36889","OBJECT_ID":"2026-039W","EPOCH":"2026-03-06T06:00:02.000160","MEAN_MOTION":15.97115209,"ECCENTRICITY":0.0001479,"INCLINATION":42.9977,"RA_OF_ASC_NODE":76.1355,"ARG_OF_PERICENTER":273.4809,"MEAN_ANOMALY":271.3597,"EPHEMERIS_TYPE":0,"CLASSIFICATION_TYPE":"U","NORAD_CAT_ID":68006,"ELEMENT_SET_NO":999,"REV_AT_EPOCH":232,"BSTAR":-0.0032249733,"MEAN_MOTION_DOT":-0.01455514,"MEAN_MOTION_DDOT":0.00063193773},{"OBJECT_NAME":"STARLINK-36592","OBJECT_ID":"2026-039X","EPOCH":"2026-03-06T06:00:02.000160","MEAN_MOTION":15.97249175,"ECCENTRICITY":0.00015315,"INCLINATION":42.9977,"RA_OF_ASC_NODE":76.1314,"ARG_OF_PERICENTER":267.6539,"MEAN_ANOMALY":279.0257,"EPHEMERIS_TYPE":0,"CLASSIFICATION_TYPE":"U","NORAD_CAT_ID":68007,"ELEMENT_SET_NO":999,"REV_AT_EPOCH":232,"BSTAR":-0.0032020352,"MEAN_MOTION_DOT":-0.0145593,"MEAN_MOTION_DDOT":0.00063314835},{"OBJECT_NAME":"STARLINK-36911","OBJECT_ID":"2026-039Y","EPOCH":"2026-03-06T06:00:02.000160","MEAN_MOTION":15.97379282,"ECCENTRICITY":0.00015704,"INCLINATION":42.9978,"RA_OF_ASC_NODE":76.1264,"ARG_OF_PERICENTER":267.0553,"MEAN_ANOMALY":281.5881,"EPHEMERIS_TYPE":0,"CLASSIFICATION_TYPE":"U","NORAD_CAT_ID":68008,"ELEMENT_SET_NO":999,"REV_AT_EPOCH":232,"BSTAR":-0.0031608141,"MEAN_MOTION_DOT":-0.01447708,"MEAN_MOTION_DDOT":0.00062744512},{"OBJECT_NAME":"STARLINK-36956","OBJECT_ID":"2026-039Z","EPOCH":"2026-03-06T06:00:02.000160","MEAN_MOTION":15.97507948,"ECCENTRICITY":0.00014235,"INCLINATION":42.9975,"RA_OF_ASC_NODE":76.1215,"ARG_OF_PERICENTER":275.2546,"MEAN_ANOMALY":275.246,"EPHEMERIS_TYPE":0,"CLASSIFICATION_TYPE":"U","NORAD_CAT_ID":68009,"ELEMENT_SET_NO":999,"REV_AT_EPOCH":232,"BSTAR":-0.0031238731,"MEAN_MOTION_DOT":-0.01441099,"MEAN_MOTION_DDOT":0.00062302785},{"OBJECT_NAME":"STARLINK-36953","OBJECT_ID":"2026-039AA","EPOCH":"2026-03-06T06:00:02.000160","MEAN_MOTION":15.97787095,"ECCENTRICITY":0.00016107,"INCLINATION":42.9975,"RA_OF_ASC_NODE":76.1109,"ARG_OF_PERICENTER":266.6188,"MEAN_ANOMALY":287.9572,"EPHEMERIS_TYPE":0,"CLASSIFICATION_TYPE":"U","NORAD_CAT_ID":68010,"ELEMENT_SET_NO":999,"REV_AT_EPOCH":232,"BSTAR":-0.0030952218,"MEAN_MOTION_DOT":-0.01450188,"MEAN_MOTION_DDOT":0.00063209928},{"OBJECT_NAME":"STARLINK-36991","OBJECT_ID":"2026-039AB","EPOCH":"2026-03-06T06:00:02.000160","MEAN_MOTION":15.97917699,"ECCENTRICITY":0.00015348,"INCLINATION":42.9975,"RA_OF_ASC_NODE":76.106,"ARG_OF_PERICENTER":267.7938,"MEAN_ANOMALY":288.7781,"EPHEMERIS_TYPE":0,"CLASSIFICATION_TYPE":"U","NORAD_CAT_ID":68011,"ELEMENT_SET_NO":999,"REV_AT_EPOCH":232,"BSTAR":-0.0030507357,"MEAN_MOTION_DOT":-0.01439916,"MEAN_MOTION_DDOT":0.00062475501},{"OBJECT_NAME":"STARLINK-36936","OBJECT_ID":"2026-039AC","EPOCH":"2026-03-06T06:00:02.000160","MEAN_MOTION":15.98191581,"ECCENTRICITY":0.00015854,"INCLINATION":42.9975,"RA_OF_ASC_NODE":76.0957,"ARG_OF_PERICENTER":270.5751,"MEAN_ANOMALY":289.8959,"EPHEMERIS_TYPE":0,"CLASSIFICATION_TYPE":"U","NORAD_CAT_ID":68012,"ELEMENT_SET_NO":999,"REV_AT_EPOCH":232,"BSTAR":-0.0030110567,"MEAN_MOTION_DOT":-0.01443118,"MEAN_MOTION_DDOT":0.00062911166},{"OBJECT_NAME":"STARLINK-36967","OBJECT_ID":"2026-039AD","EPOCH":"2026-03-06T06:00:02.000160","MEAN_MOTION":15.97644918,"ECCENTRICITY":0.00015455,"INCLINATION":42.9975,"RA_OF_ASC_NODE":76.1159,"ARG_OF_PERICENTER":270.8717,"MEAN_ANOMALY":281.5988,"EPHEMERIS_TYPE":0,"CLASSIFICATION_TYPE":"U","NORAD_CAT_ID":68013,"ELEMENT_SET_NO":999,"REV_AT_EPOCH":232,"BSTAR":-0.003106675,"MEAN_MOTION_DOT":-0.01444122,"MEAN_MOTION_DDOT":0.00062632267},{"OBJECT_NAME":"STARLINK-36985","OBJECT_ID":"2026-039AE","EPOCH":"2026-03-06T06:00:02.000160","MEAN_MOTION":15.98053375,"ECCENTRICITY":0.00015963,"INCLINATION":42.9975,"RA_OF_ASC_NODE":76.1011,"ARG_OF_PERICENTER":270.0339,"MEAN_ANOMALY":288.4182,"EPHEMERIS_TYPE":0,"CLASSIFICATION_TYPE":"U","NORAD_CAT_ID":68014,"ELEMENT_SET_NO":999,"REV_AT_EPOCH":232,"BSTAR":-0.0030375986,"MEAN_MOTION_DOT":-0.01444593,"MEAN_MOTION_DDOT":0.00062937978}]
